{"fetched_at":"2026-03-29T02:12:04Z","count":15717,"tles":[{"name":"GALAXY 32 (G-32)","line1":"1 54244U 22153B   26087.52667995 -.00000194  00000+0  00000+0 0  9997","line2":"2 54244   0.0150 118.7764 0002949 242.1591 283.5980  1.00271225 12333","category":"Other"}]}